STARLINK-1805
1 16705C 20073AM  21326.14530242  .00003151  00000-0  21108-3 0  3268
2 16705  53.0529  98.0805 0001394  67.0345 223.5732 15.06399034    15
